{
  "type": "FeatureCollection",
  "features": [
    {
      "type": "Feature",
      "properties": {
        "norad_id": 30282,
        "name": "FENGYUN 1C DEB",
        "group": "fengyun-1c-debris",
        "lat": -76.63227380628585,
        "lon": 24.125144375781403,
        "alt_km": 870.4284917743807,
        "timestamp": "2025-12-07T14:37:05.479863+00:00",
        "meta_object_name": "FENGYUN 1C DEB",
        "meta_object_id": "1999-025YT",
        "meta_epoch": "2025-12-06T22:18:12.547296",
        "meta_mean_motion": 14.12958833,
        "meta_eccentricity": 0.0210657,
        "meta_inclination": 98.5015,
        "meta_ra_of_asc_node": 344.4723,
        "meta_arg_of_pericenter": 18.7425,
        "meta_mean_anomaly": 48.1797,
        "meta_ephemeris_type": 0,
        "meta_classification_type": "U",
        "meta_norad_cat_id": 30282,
        "meta_element_set_no": 999,
        "meta_rev_at_epoch": 97269,
        "meta_bstar": 0.00057667069,
        "meta_mean_motion_dot": 1.285e-05,
        "meta_mean_motion_ddot": 0,
        "tle_line1": "1 30282U 99025YT  25340.92931189  .00001285  00000+0  57667-3 0  9995",
        "tle_line2": "2 30282  98.5015 344.4723 0210657  18.7425  48.1797 14.12958833972693"
      },
      "geometry": {
        "type": "Point",
        "coordinates": [
          24.125144375781403,
          -76.63227380628585
        ]
      }
    },
    {
      "type": "Feature",
      "properties": {
        "norad_id": 30283,
        "name": "FENGYUN 1C DEB",
        "group": "fengyun-1c-debris",
        "lat": 54.66745558020846,
        "lon": -37.288358619938975,
        "alt_km": 747.2031200757265,
        "timestamp": "2025-12-07T14:37:05.479874+00:00",
        "meta_object_name": "FENGYUN 1C DEB",
        "meta_object_id": "1999-025YU",
        "meta_epoch": "2025-12-06T23:11:49.944192",
        "meta_mean_motion": 14.01972733,
        "meta_eccentricity": 0.01852308,
        "meta_inclination": 98.8672,
        "meta_ra_of_asc_node": 334.808,
        "meta_arg_of_pericenter": 59.2991,
        "meta_mean_anomaly": 355.3054,
        "meta_ephemeris_type": 0,
        "meta_classification_type": "U",
        "meta_norad_cat_id": 30283,
        "meta_element_set_no": 999,
        "meta_rev_at_epoch": 96610,
        "meta_bstar": 0.00010457646,
        "meta_mean_motion_dot": 1.43e-06,
        "meta_mean_motion_ddot": 0,
        "tle_line1": "1 30283U 99025YU  25340.96655028  .00000143  00000+0  10458-3 0  9994",
        "tle_line2": "2 30283  98.8672 334.8080 0185230  59.2991 355.3054 14.01972733966102"
      },
      "geometry": {
        "type": "Point",
        "coordinates": [
          -37.288358619938975,
          54.66745558020846
        ]
      }
    },
    {
      "type": "Feature",
      "properties": {
        "norad_id": 30284,
        "name": "FENGYUN 1C DEB",
        "group": "fengyun-1c-debris",
        "lat": 36.547295066667495,
        "lon": -123.4149944146415,
        "alt_km": 767.6763996082254,
        "timestamp": "2025-12-07T14:37:05.479885+00:00",
        "meta_object_name": "FENGYUN 1C DEB",
        "meta_object_id": "1999-025YV",
        "meta_epoch": "2025-12-06T16:48:45.073152",
        "meta_mean_motion": 14.28698372,
        "meta_eccentricity": 0.00380272,
        "meta_inclination": 98.7206,
        "meta_ra_of_asc_node": 49.1442,
        "meta_arg_of_pericenter": 126.1531,
        "meta_mean_anomaly": 26.1434,
        "meta_ephemeris_type": 0,
        "meta_classification_type": "U",
        "meta_norad_cat_id": 30284,
        "meta_element_set_no": 999,
        "meta_rev_at_epoch": 97429,
        "meta_bstar": 0.002640684,
        "meta_mean_motion_dot": 6.654e-05,
        "meta_mean_motion_ddot": 0,
        "tle_line1": "1 30284U 99025YV  25340.70052168  .00006654  00000+0  26407-2 0  9996",
        "tle_line2": "2 30284  98.7206  49.1442 0038027 126.1531  26.1434 14.28698372974295"
      },
      "geometry": {
        "type": "Point",
        "coordinates": [
          -123.4149944146415,
          36.547295066667495
        ]
      }
    },
    {
      "type": "Feature",
      "properties": {
        "norad_id": 30286,
        "name": "FENGYUN 1C DEB",
        "group": "fengyun-1c-debris",
        "lat": 31.133037127791706,
        "lon": 171.42450366529292,
        "alt_km": 801.6929761877791,
        "timestamp": "2025-12-07T14:37:05.479895+00:00",
        "meta_object_name": "FENGYUN 1C DEB",
        "meta_object_id": "1999-025YX",
        "meta_epoch": "2025-12-06T22:56:50.639424",
        "meta_mean_motion": 14.12720328,
        "meta_eccentricity": 0.0064481,
        "meta_inclination": 98.69,
        "meta_ra_of_asc_node": 345.4905,
        "meta_arg_of_pericenter": 149.0592,
        "meta_mean_anomaly": 280.3873,
        "meta_ephemeris_type": 0,
        "meta_classification_type": "U",
        "meta_norad_cat_id": 30286,
        "meta_element_set_no": 999,
        "meta_rev_at_epoch": 97377,
        "meta_bstar": 0.00015643649,
        "meta_mean_motion_dot": 2.54e-06,
        "meta_mean_motion_ddot": 0,
        "tle_line1": "1 30286U 99025YX  25340.95614166  .00000254  00000+0  15644-3 0  9999",
        "tle_line2": "2 30286  98.6900 345.4905 0064481 149.0592 280.3873 14.12720328973770"
      },
      "geometry": {
        "type": "Point",
        "coordinates": [
          171.42450366529292,
          31.133037127791706
        ]
      }
    },
    {
      "type": "Feature",
      "properties": {
        "norad_id": 30287,
        "name": "FENGYUN 1C DEB",
        "group": "fengyun-1c-debris",
        "lat": 75.24209345559647,
        "lon": -128.41246207044227,
        "alt_km": 911.9921586294786,
        "timestamp": "2025-12-07T14:37:05.479906+00:00",
        "meta_object_name": "FENGYUN 1C DEB",
        "meta_object_id": "1999-025YY",
        "meta_epoch": "2025-12-06T15:54:10.985760",
        "meta_mean_motion": 13.68562899,
        "meta_eccentricity": 0.04136636,
        "meta_inclination": 98.6379,
        "meta_ra_of_asc_node": 15.495,
        "meta_arg_of_pericenter": 28.4761,
        "meta_mean_anomaly": 88.3884,
        "meta_ephemeris_type": 0,
        "meta_classification_type": "U",
        "meta_norad_cat_id": 30287,
        "meta_element_set_no": 999,
        "meta_rev_at_epoch": 93775,
        "meta_bstar": 0.0017654235,
        "meta_mean_motion_dot": 2.721e-05,
        "meta_mean_motion_ddot": 0,
        "tle_line1": "1 30287U 99025YY  25340.66262715  .00002721  00000+0  17654-2 0  9990",
        "tle_line2": "2 30287  98.6379  15.4950 0413663  28.4761  88.3884 13.68562899937756"
      },
      "geometry": {
        "type": "Point",
        "coordinates": [
          -128.41246207044227,
          75.24209345559647
        ]
      }
    },
    {
      "type": "Feature",
      "properties": {
        "norad_id": 30288,
        "name": "FENGYUN 1C DEB",
        "group": "fengyun-1c-debris",
        "lat": -78.48870316973945,
        "lon": 117.22512932175118,
        "alt_km": 783.6190681398875,
        "timestamp": "2025-12-07T14:37:05.479916+00:00",
        "meta_object_name": "FENGYUN 1C DEB",
        "meta_object_id": "1999-025YZ",
        "meta_epoch": "2025-12-06T19:27:31.459392",
        "meta_mean_motion": 14.32499958,
        "meta_eccentricity": 0.0020242,
        "meta_inclination": 99.3957,
        "meta_ra_of_asc_node": 61.9683,
        "meta_arg_of_pericenter": 340.1343,
        "meta_mean_anomaly": 142.1483,
        "meta_ephemeris_type": 0,
        "meta_classification_type": "U",
        "meta_norad_cat_id": 30288,
        "meta_element_set_no": 999,
        "meta_rev_at_epoch": 97484,
        "meta_bstar": 0.0030481501,
        "meta_mean_motion_dot": 8.238e-05,
        "meta_mean_motion_ddot": 0,
        "tle_line1": "1 30288U 99025YZ  25340.81078078  .00008238  00000+0  30482-2 0  9998",
        "tle_line2": "2 30288  99.3957  61.9683 0020242 340.1343 142.1483 14.32499958974845"
      },
      "geometry": {
        "type": "Point",
        "coordinates": [
          117.22512932175118,
          -78.48870316973945
        ]
      }
    },
    {
      "type": "Feature",
      "properties": {
        "norad_id": 30289,
        "name": "FENGYUN 1C DEB",
        "group": "fengyun-1c-debris",
        "lat": 8.171731159268635,
        "lon": -100.70224780296532,
        "alt_km": 834.2372847688985,
        "timestamp": "2025-12-07T14:37:05.479926+00:00",
        "meta_object_name": "FENGYUN 1C DEB",
        "meta_object_id": "1999-025ZA",
        "meta_epoch": "2025-12-06T19:52:43.245120",
        "meta_mean_motion": 14.25744262,
        "meta_eccentricity": 0.00370758,
        "meta_inclination": 98.9274,
        "meta_ra_of_asc_node": 77.2095,
        "meta_arg_of_pericenter": 347.9633,
        "meta_mean_anomaly": 138.2696,
        "meta_ephemeris_type": 0,
        "meta_classification_type": "U",
        "meta_norad_cat_id": 30289,
        "meta_element_set_no": 999,
        "meta_rev_at_epoch": 96997,
        "meta_bstar": 0.0032261481,
        "meta_mean_motion_dot": 7.677e-05,
        "meta_mean_motion_ddot": 0,
        "tle_line1": "1 30289U 99025ZA  25340.82827830  .00007677  00000+0  32261-2 0  9991",
        "tle_line2": "2 30289  98.9274  77.2095 0037075 347.9633 138.2696 14.25744262969972"
      },
      "geometry": {
        "type": "Point",
        "coordinates": [
          -100.70224780296532,
          8.171731159268635
        ]
      }
    }
  ]
}